{
  "type": "FeatureCollection",
  "features": [
    {
      "type": "Feature",
      "properties": {
        "norad_id": 33376,
        "name": "GALAXY 19 (G-19)",
        "group": "intelsat",
        "lat": -0.030304241593771174,
        "lon": -137.99169592586568,
        "alt_km": 35777.74032214733,
        "timestamp": "2025-12-11T15:53:39.209934+00:00",
        "meta_object_name": "GALAXY 19 (G-19)",
        "meta_object_id": "2008-045A",
        "meta_epoch": "2025-12-11T05:00:38.584224",
        "meta_mean_motion": 1.00269711,
        "meta_eccentricity": 0.00026978,
        "meta_inclination": 0.0167,
        "meta_ra_of_asc_node": 344.1002,
        "meta_arg_of_pericenter": 276.3628,
        "meta_mean_anomaly": 157.8728,
        "meta_ephemeris_type": 0,
        "meta_classification_type": "U",
        "meta_norad_cat_id": 33376,
        "meta_element_set_no": 999,
        "meta_rev_at_epoch": 6301,
        "meta_bstar": 0,
        "meta_mean_motion_dot": 0,
        "meta_mean_motion_ddot": 0,
        "tle_line1": "1 33376U 08045A   25345.20877991  .00000000  00000+0  00000+0 0  9999",
        "tle_line2": "2 33376   0.0167 344.1002 0002697 276.3628 157.8728  1.00269711 63015"
      },
      "geometry": {
        "type": "Point",
        "coordinates": [
          -137.99169592586568,
          -0.030304241593771174
        ]
      }
    },
    {
      "type": "Feature",
      "properties": {
        "norad_id": 35493,
        "name": "FM-5",
        "group": "intelsat",
        "lat": -0.027139834033328303,
        "lon": -127.11203555537661,
        "alt_km": 35785.46571992281,
        "timestamp": "2025-12-11T15:53:39.209946+00:00",
        "meta_object_name": "FM-5",
        "meta_object_id": "2009-034A",
        "meta_epoch": "2025-12-11T04:52:38.653824",
        "meta_mean_motion": 1.00270578,
        "meta_eccentricity": 5.466e-05,
        "meta_inclination": 0.0153,
        "meta_ra_of_asc_node": 293.7134,
        "meta_arg_of_pericenter": 234.7346,
        "meta_mean_anomaly": 258.736,
        "meta_ephemeris_type": 0,
        "meta_classification_type": "U",
        "meta_norad_cat_id": 35493,
        "meta_element_set_no": 999,
        "meta_rev_at_epoch": 4475,
        "meta_bstar": 0,
        "meta_mean_motion_dot": -1.94e-06,
        "meta_mean_motion_ddot": 0,
        "tle_line1": "1 35493U 09034A   25345.20322516 -.00000194  00000+0  00000+0 0  9993",
        "tle_line2": "2 35493   0.0153 293.7134 0000546 234.7346 258.7360  1.00270578 44759"
      },
      "geometry": {
        "type": "Point",
        "coordinates": [
          -127.11203555537661,
          -0.027139834033328303
        ]
      }
    },
    {
      "type": "Feature",
      "properties": {
        "norad_id": 36097,
        "name": "INTELSAT 14 (IS-14)",
        "group": "intelsat",
        "lat": -0.02480627108028852,
        "lon": -85.97338424884909,
        "alt_km": 35775.65117873402,
        "timestamp": "2025-12-11T15:53:39.209958+00:00",
        "meta_object_name": "INTELSAT 14 (IS-14)",
        "meta_object_id": "2009-064A",
        "meta_epoch": "2025-12-11T00:50:38.714784",
        "meta_mean_motion": 1.00270021,
        "meta_eccentricity": 0.00026105,
        "meta_inclination": 0.0102,
        "meta_ra_of_asc_node": 18.0466,
        "meta_arg_of_pericenter": 250.6315,
        "meta_mean_anomaly": 138.984,
        "meta_ephemeris_type": 0,
        "meta_classification_type": "U",
        "meta_norad_cat_id": 36097,
        "meta_element_set_no": 999,
        "meta_rev_at_epoch": 5871,
        "meta_bstar": 0,
        "meta_mean_motion_dot": -2.68e-06,
        "meta_mean_motion_ddot": 0,
        "tle_line1": "1 36097U 09064A   25345.03517031 -.00000268  00000+0  00000+0 0  9998",
        "tle_line2": "2 36097   0.0102  18.0466 0002610 250.6315 138.9840  1.00270021 58713"
      },
      "geometry": {
        "type": "Point",
        "coordinates": [
          -85.97338424884909,
          -0.02480627108028852
        ]
      }
    },
    {
      "type": "Feature",
      "properties": {
        "norad_id": 36106,
        "name": "INTELSAT 15 (IS-15)",
        "group": "intelsat",
        "lat": 0.03470510004642577,
        "lon": 44.19144840279195,
        "alt_km": 35793.55716916869,
        "timestamp": "2025-12-11T15:53:39.209969+00:00",
        "meta_object_name": "INTELSAT 15 (IS-15)",
        "meta_object_id": "2009-067A",
        "meta_epoch": "2025-12-11T01:39:38.885184",
        "meta_mean_motion": 1.00270749,
        "meta_eccentricity": 0.00023872,
        "meta_inclination": 0.024,
        "meta_ra_of_asc_node": 289.4565,
        "meta_arg_of_pericenter": 339.7099,
        "meta_mean_anomaly": 280.9264,
        "meta_ephemeris_type": 0,
        "meta_classification_type": "U",
        "meta_norad_cat_id": 36106,
        "meta_element_set_no": 999,
        "meta_rev_at_epoch": 3934,
        "meta_bstar": 0,
        "meta_mean_motion_dot": -1.79e-06,
        "meta_mean_motion_ddot": 0,
        "tle_line1": "1 36106U 09067A   25345.06920006 -.00000179  00000+0  00000+0 0  9996",
        "tle_line2": "2 36106   0.0240 289.4565 0002387 339.7099 280.9264  1.00270749 39343"
      },
      "geometry": {
        "type": "Point",
        "coordinates": [
          44.19144840279195,
          0.03470510004642577
        ]
      }
    },
    {
      "type": "Feature",
      "properties": {
        "norad_id": 36131,
        "name": "DIRECTV 12",
        "group": "intelsat",
        "lat": 0.021944460635475116,
        "lon": -143.69589642413567,
        "alt_km": 35787.485207705584,
        "timestamp": "2025-12-11T15:53:39.209981+00:00",
        "meta_object_name": "DIRECTV 12",
        "meta_object_id": "2009-075A",
        "meta_epoch": "2025-12-10T23:19:34.847904",
        "meta_mean_motion": 1.0027091,
        "meta_eccentricity": 4.062e-05,
        "meta_inclination": 0.04,
        "meta_ra_of_asc_node": 149.0502,
        "meta_arg_of_pericenter": 199.7409,
        "meta_mean_anomaly": 338.3242,
        "meta_ephemeris_type": 0,
        "meta_classification_type": "U",
        "meta_norad_cat_id": 36131,
        "meta_element_set_no": 999,
        "meta_rev_at_epoch": 4466,
        "meta_bstar": 0,
        "meta_mean_motion_dot": -9.8e-07,
        "meta_mean_motion_ddot": 0,
        "tle_line1": "1 36131U 09075A   25344.97193111 -.00000098  00000+0  00000+0 0  9991",
        "tle_line2": "2 36131   0.0400 149.0502 0000406 199.7409 338.3242  1.00270910 44665"
      },
      "geometry": {
        "type": "Point",
        "coordinates": [
          -143.69589642413567,
          0.021944460635475116
        ]
      }
    },
    {
      "type": "Feature",
      "properties": {
        "norad_id": 36397,
        "name": "INTELSAT 16 (IS-16)",
        "group": "intelsat",
        "lat": -0.027645825650854553,
        "lon": -117.17658813721573,
        "alt_km": 35777.33031338449,
        "timestamp": "2025-12-11T15:53:39.209993+00:00",
        "meta_object_name": "INTELSAT 16 (IS-16)",
        "meta_object_id": "2010-006A",
        "meta_epoch": "2025-12-11T04:35:21.046848",
        "meta_mean_motion": 1.00272345,
        "meta_eccentricity": 0.0002155,
        "meta_inclination": 0.0107,
        "meta_ra_of_asc_node": 320.4435,
        "meta_arg_of_pericenter": 301.0646,
        "meta_mean_anomaly": 171.2868,
        "meta_ephemeris_type": 0,
        "meta_classification_type": "U",
        "meta_norad_cat_id": 36397,
        "meta_element_set_no": 999,
        "meta_rev_at_epoch": 5776,
        "meta_bstar": 0,
        "meta_mean_motion_dot": -2.39e-06,
        "meta_mean_motion_ddot": 0,
        "tle_line1": "1 36397U 10006A   25345.19121582 -.00000239  00000+0  00000+0 0  9996",
        "tle_line2": "2 36397   0.0107 320.4435 0002155 301.0646 171.2868  1.00272345 57764"
      },
      "geometry": {
        "type": "Point",
        "coordinates": [
          -117.17658813721573,
          -0.027645825650854553
        ]
      }
    },
    {
      "type": "Feature",
      "properties": {
        "norad_id": 37185,
        "name": "XM-5",
        "group": "intelsat",
        "lat": -0.06538196867873668,
        "lon": -156.16618787021457,
        "alt_km": 35783.08962787445,
        "timestamp": "2025-12-11T15:53:39.210004+00:00",
        "meta_object_name": "XM-5",
        "meta_object_id": "2010-053A",
        "meta_epoch": "2025-12-10T23:47:38.631840",
        "meta_mean_motion": 1.00269536,
        "meta_eccentricity": 0.00014999,
        "meta_inclination": 0.0597,
        "meta_ra_of_asc_node": 272.8413,
        "meta_arg_of_pericenter": 236.063,
        "meta_mean_anomaly": 172.7615,
        "meta_ephemeris_type": 0,
        "meta_classification_type": "U",
        "meta_norad_cat_id": 37185,
        "meta_element_set_no": 999,
        "meta_rev_at_epoch": 5559,
        "meta_bstar": 0,
        "meta_mean_motion_dot": -1.7e-07,
        "meta_mean_motion_ddot": 0,
        "tle_line1": "1 37185U 10053A   25344.99141935 -.00000017  00000+0  00000+0 0  9999",
        "tle_line2": "2 37185   0.0597 272.8413 0001499 236.0630 172.7615  1.00269536 55592"
      },
      "geometry": {
        "type": "Point",
        "coordinates": [
          -156.16618787021457,
          -0.06538196867873668
        ]
      }
    }
  ]
}